GLOBALSTAR M084 [+]     
1 38040U 11080A   23309.53621056 -.00000092  00000+0  68133-4 0  9996
2 38040  52.0027  43.5856 0000720 134.3823 239.5207 12.62267245548201
GLOBALSTAR M080 [+]     
1 38041U 11080B   23309.60960230 -.00000089  00000+0  83098-4 0  9998
2 38041  52.0078  44.7615 0000940 133.2669 334.4376 12.62265791548334
GLOBALSTAR M082 [+]     
1 38042U 11080C   23309.44343719 -.00000075  00000+0  16316-3 0  9991
2 38042  52.0101   0.6524 0000499  14.9600 358.4425 12.62267547549020
GLOBALSTAR M092 [+]     
1 38043U 11080D   23309.60104043 -.00000093  00000+0  62840-4 0  9999
2 38043  52.0073  90.5128 0000781 129.5572   1.1005 12.62273904547491
GLOBALSTAR M090 [+]     
1 38044U 11080E   23309.39051865 -.00000074  00000+0  16417-3 0  9996
2 38044  51.9910 355.3811 0000402  56.5801 317.1825 12.62262984549134
GLOBALSTAR M086 [+]     
1 38045U 11080F   23309.41675904 -.00000078  00000+0  14605-3 0  9997
2 38045  51.9921 355.8077 0001336  93.8091 278.1958 12.62263893549085
GLOBALSTAR M097 [+]     
1 39072U 13005A   23309.28228032 -.00000073  00000+0  17292-3 0  9998
2 39072  52.0048 270.1645 0000879  52.1581 307.9365 12.62272344496312
GLOBALSTAR M093 [+]     
1 39073U 13005B   23309.57251784 -.00000075  00000+0  16080-3 0  9997
2 39073  51.9812 263.5275 0001124  52.0476 308.0492 12.62268389496307
